start=new Date('2022-01-13T00:00:00.000Z').valueOf();
sats=[{"OBJECT_ID":"2021-041A","FILE":"3270709","PERIAPSIS":"546.323","EPOCH":"2022-01-12T12:34:29.818272","REV_AT_EPOCH":"3653","MEAN_MOTION":"15.06390537","PERIOD":"95.593","REF_FRAME":"TEME","LAUNCH_DATE":"2021-05-15","SITE":"AFETR","BSTAR":"-0.00009825300000","MEAN_ELEMENT_THEORY":"SGP4","MEAN_MOTION_DDOT":"0.0000000000000","MEAN_ANOMALY":"259.7369","ARG_OF_PERICENTER":"100.3769","CENTER_NAME":"EARTH","DECAY_DATE":null,"TLE_LINE1":"1 48553U 21041A   22012.52395623 -.00001744  00000-0 -98253-4 0  9994","TLE_LINE2":"2 48553  53.0552 102.4447 0001328 100.3769 259.7369 15.06390537 36536","TIME_SYSTEM":"UTC","SEMIMAJOR_AXIS":"6925.378","COUNTRY_CODE":"US","RA_OF_ASC_NODE":"102.4447","GP_ID":"193735542","ECCENTRICITY":"0.00013280","APOAPSIS":"548.162","MEAN_MOTION_DOT":"-0.00001744","INCLINATION":"53.0552","OBJECT_TYPE":"PAYLOAD","NORAD_CAT_ID":"48553","OBJECT_NAME":"STARLINK-2063","EPHEMERIS_TYPE":"0","CLASSIFICATION_TYPE":"U","RCS_SIZE":"LARGE","ELEMENT_SET_NO":"999"},{"REV_AT_EPOCH":"3693","MEAN_MOTION":"15.06395759","PERIOD":"95.592","REF_FRAME":"TEME","OBJECT_ID":"2021-041B","FILE":"3270506","PERIAPSIS":"546.228","EPOCH":"2022-01-12T12:45:06.683040","MEAN_MOTION_DDOT":"0.0000000000000","MEAN_ANOMALY":"250.6054","LAUNCH_DATE":"2021-05-15","SITE":"AFETR","BSTAR":"-0.00008312900000","MEAN_ELEMENT_THEORY":"SGP4","TLE_LINE2":"2 48554  53.0550 102.4127 0001442 109.5091 250.6054 15.06395759 36932","SEMIMAJOR_AXIS":"6925.362","TIME_SYSTEM":"UTC","ARG_OF_PERICENTER":"109.5091","CENTER_NAME":"EARTH","TLE_LINE1":"1 48554U 21041B   22012.53132735 -.00001519  00000-0 -83129-4 0  9995","DECAY_DATE":null,"CLASSIFICATION_TYPE":"U","RCS_SIZE":"LARGE","ELEMENT_SET_NO":"999","COUNTRY_CODE":"US","RA_OF_ASC_NODE":"102.4127","ECCENTRICITY":"0.00014420","GP_ID":"193707473","APOAPSIS":"548.225","INCLINATION":"53.0550","MEAN_MOTION_DOT":"-0.00001519","OBJECT_TYPE":"PAYLOAD","NORAD_CAT_ID":"48554","EPHEMERIS_TYPE":"0","OBJECT_NAME":"STARLINK-2139"},{"COUNTRY_CODE":"US","RA_OF_ASC_NODE":"112.2869","ECCENTRICITY":"0.00015880","GP_ID":"193707491","APOAPSIS":"548.335","INCLINATION":"53.0570","MEAN_MOTION_DOT":"-0.00001583","OBJECT_NAME":"STARLINK-2145","OBJECT_TYPE":"PAYLOAD","NORAD_CAT_ID":"48555","EPHEMERIS_TYPE":"0","CLASSIFICATION_TYPE":"U","RCS_SIZE":"LARGE","ELEMENT_SET_NO":"999","ARG_OF_PERICENTER":"99.7253","CENTER_NAME":"EARTH","DECAY_DATE":null,"TLE_LINE1":"1 48555U 21041C   22012.55989613 -.00001583  00000-0 -87401-4 0  9991","TLE_LINE2":"2 48555  53.0570 112.2869 0001588  99.7253 260.3916 15.06392793 36848","SEMIMAJOR_AXIS":"6925.371","TIME_SYSTEM":"UTC","LAUNCH_DATE":"2021-05-15","SITE":"AFETR","BSTAR":"-0.00008740100000","MEAN_ELEMENT_THEORY":"SGP4","MEAN_MOTION_DDOT":"0.0000000000000","MEAN_ANOMALY":"260.3916","OBJECT_ID":"2021-041C","FILE":"3270504","PERIAPSIS":"546.136","EPOCH":"2022-01-12T13:26:15.025632","REV_AT_EPOCH":"3684","MEAN_MOTION":"15.06392793","PERIOD":"95.593","REF_FRAME":"TEME"},{"COUNTRY_CODE":"US","RA_OF_ASC_NODE":"112.3304","GP_ID":"193707480","ECCENTRICITY":"0.00013170","APOAPSIS":"548.140","INCLINATION":"53.0556","MEAN_MOTION_DOT":"-0.00001126","OBJECT_TYPE":"PAYLOAD","NORAD_CAT_ID":"48556","OBJECT_NAME":"STARLINK-2151","EPHEMERIS_TYPE":"0","CLASSIFICATION_TYPE":"U","RCS_SIZE":"LARGE","ELEMENT_SET_NO":"999","ARG_OF_PERICENTER":"91.4546","CENTER_NAME":"EARTH","DECAY_DATE":null,"TLE_LINE1":"1 48556U 21041D   22012.54883320 -.00001126  00000-0 -56749-4 0  9993","TLE_LINE2":"2 48556  53.0556 112.3304 0001317  91.4546 268.6594 15.06395431 36847","TIME_SYSTEM":"UTC","SEMIMAJOR_AXIS":"6925.363","LAUNCH_DATE":"2021-05-15","SITE":"AFETR","BSTAR":"-0.00005674900000","MEAN_ELEMENT_THEORY":"SGP4","MEAN_MOTION_DDOT":"0.0000000000000","MEAN_ANOMALY":"268.6594","OBJECT_ID":"2021-041D","FILE":"3270504","PERIAPSIS":"546.315","EPOCH":"2022-01-12T13:10:19.188480","REV_AT_EPOCH":"3684","MEAN_MOTION":"15.06395431","PERIOD":"95.592","REF_FRAME":"TEME"},{"SEMIMAJOR_AXIS":"6925.369","TIME_SYSTEM":"UTC","TLE_LINE2":"2 48557  53.0553 102.3180 0001314 104.2654 255.8481 15.06393315 36534","TLE_LINE1":"1 48557U 21041E   22012.55344149  .00000473  00000-0  50660-4 0  9994","DECAY_DATE":null,"CENTER_NAME":"EARTH","ARG_OF_PERICENTER":"104.2654","ELEMENT_SET_NO":"999","RCS_SIZE":"LARGE","CLASSIFICATION_TYPE":"U","OBJECT_TYPE":"PAYLOAD","NORAD_CAT_ID":"48557","OBJECT_NAME":"STARLINK-2155","EPHEMERIS_TYPE":"0","INCLINATION":"53.0553","MEAN_MOTION_DOT":"0.00000473","APOAPSIS":"548.144","ECCENTRICITY":"0.00013140","GP_ID":"193735043","RA_OF_ASC_NODE":"102.3180","COUNTRY_CODE":"US","REF_FRAME":"TEME","PERIOD":"95.593","MEAN_MOTION":"15.06393315","REV_AT_EPOCH":"3653","EPOCH":"2022-01-12T13:16:57.344736","PERIAPSIS":"546.324","FILE":"3270709","OBJECT_ID":"2021-041E","MEAN_ANOMALY":"255.8481","MEAN_MOTION_DDOT":"0.0000000000000","MEAN_ELEMENT_THEORY":"SGP4","BSTAR":"0.00005066000000","SITE":"AFETR","LAUNCH_DATE":"2021-05-15"},{"SITE":"AFETR","BSTAR":"-0.00007351800000","MEAN_ELEMENT_THEORY":"SGP4","LAUNCH_DATE":"2021-05-15","MEAN_ANOMALY":"266.1429","MEAN_MOTION_DDOT":"0.0000000000000","PERIAPSIS":"546.355","EPOCH":"2022-01-12T13:11:39.306336","OBJECT_ID":"2021-041F","FILE":"3270709","MEAN_MOTION":"15.06389208","PERIOD":"95.593","REF_FRAME":"TEME","REV_AT_EPOCH":"3567","GP_ID":"193735295","ECCENTRICITY":"0.00012880","APOAPSIS":"548.139","INCLINATION":"53.0544","MEAN_MOTION_DOT":"-0.00001376","OBJECT_TYPE":"PAYLOAD","OBJECT_NAME":"STARLINK-2166","EPHEMERIS_TYPE":"0","NORAD_CAT_ID":"48558","COUNTRY_CODE":"US","RA_OF_ASC_NODE":"102.3277","ELEMENT_SET_NO":"999","CLASSIFICATION_TYPE":"U","RCS_SIZE":"LARGE","TLE_LINE1":"1 48558U 21041F   22012.54976049 -.00001376  00000-0 -73518-4 0  9996","DECAY_DATE":null,"ARG_OF_PERICENTER":"93.9707","CENTER_NAME":"EARTH","TIME_SYSTEM":"UTC","SEMIMAJOR_AXIS":"6925.382","TLE_LINE2":"2 48558  53.0544 102.3277 0001288  93.9707 266.1429 15.06389208 35672"},{"SEMIMAJOR_AXIS":"6925.290","TIME_SYSTEM":"UTC","TLE_LINE2":"2 48559  53.0546 102.4539 0001351  88.1368 271.9775 15.06419211 36528","TLE_LINE1":"1 48559U 21041G   22012.51930997 -.00004320  00000-0 -27114-3 0  9998","DECAY_DATE":null,"CENTER_NAME":"EARTH","ARG_OF_PERICENTER":"88.1368","ELEMENT_SET_NO":"999","RCS_SIZE":"LARGE","CLASSIFICATION_TYPE":"U","MEAN_MOTION_DOT":"-0.00004320","INCLINATION":"53.0546","EPHEMERIS_TYPE":"0","OBJECT_TYPE":"PAYLOAD","OBJECT_NAME":"STARLINK-2167","NORAD_CAT_ID":"48559","GP_ID":"193736546","ECCENTRICITY":"0.00013510","APOAPSIS":"548.090","RA_OF_ASC_NODE":"102.4539","COUNTRY_CODE":"US","PERIOD":"95.591","REF_FRAME":"TEME","MEAN_MOTION":"15.06419211","REV_AT_EPOCH":"3652","EPOCH":"2022-01-12T12:27:48.381408","PERIAPSIS":"546.219","FILE":"3270709","OBJECT_ID":"2021-041G","MEAN_ANOMALY":"271.9775","MEAN_MOTION_DDOT":"0.0000000000000","BSTAR":"-0.00027114000000","MEAN_ELEMENT_THEORY":"SGP4","SITE":"AFETR","LAUNCH_DATE":"2021-05-15"},{"DECAY_DATE":null,"TLE_LINE1":"1 48560U 21041H   22012.53956954 -.00002320  11053-4  36440-5 0  9998","CENTER_NAME":"EARTH","ARG_OF_PERICENTER":"284.6820","TIME_SYSTEM":"UTC","SEMIMAJOR_AXIS":"6677.856","TLE_LINE2":"2 48560  53.0467  73.9120 0007786 284.6820  75.3342 15.90915806 37839","INCLINATION":"53.0467","MEAN_MOTION_DOT":"-0.00002320","OBJECT_TYPE":"PAYLOAD","EPHEMERIS_TYPE":"0","OBJECT_NAME":"STARLINK-2173","NORAD_CAT_ID":"48560","GP_ID":"193736297","ECCENTRICITY":"0.00077860","APOAPSIS":"304.920","RA_OF_ASC_NODE":"73.9120","COUNTRY_CODE":"US","ELEMENT_SET_NO":"999","RCS_SIZE":"LARGE","CLASSIFICATION_TYPE":"U","EPOCH":"2022-01-12T12:56:58.808256","PERIAPSIS":"294.522","FILE":"3270709","OBJECT_ID":"2021-041H","PERIOD":"90.514","REF_FRAME":"TEME","MEAN_MOTION":"15.90915806","REV_AT_EPOCH":"3783","BSTAR":"0.00000364400000","MEAN_ELEMENT_THEORY":"SGP4","SITE":"AFETR","LAUNCH_DATE":"2021-05-15","MEAN_ANOMALY":"75.3342","MEAN_MOTION_DDOT":"0.0000110530000"},{"INCLINATION":"53.0558","MEAN_MOTION_DOT":"0.00037765","OBJECT_NAME":"STARLINK-2186","OBJECT_TYPE":"PAYLOAD","NORAD_CAT_ID":"48561","EPHEMERIS_TYPE":"0","ECCENTRICITY":"0.00010760","GP_ID":"193735543","APOAPSIS":"548.004","RA_OF_ASC_NODE":"72.1841","COUNTRY_CODE":"US","ELEMENT_SET_NO":"999","RCS_SIZE":"LARGE","CLASSIFICATION_TYPE":"U","DECAY_DATE":null,"TLE_LINE1":"1 48561U 21041J   22012.58334491  .00037765  00000-0  25417-2 0  9995","CENTER_NAME":"EARTH","ARG_OF_PERICENTER":"106.2050","SEMIMAJOR_AXIS":"6925.394","TIME_SYSTEM":"UTC","TLE_LINE2":"2 48561  53.0558  72.1841 0001076 106.2050 306.2944 15.06385215  3606","BSTAR":"0.00254170000000","MEAN_ELEMENT_THEORY":"SGP4","SITE":"AFETR","LAUNCH_DATE":"2021-05-15","MEAN_ANOMALY":"306.2944","MEAN_MOTION_DDOT":"0.0000000000000","EPOCH":"2022-01-12T14:00:01.000224","PERIAPSIS":"546.514","FILE":"3270709","OBJECT_ID":"2021-041J","PERIOD":"95.593","REF_FRAME":"TEME","MEAN_MOTION":"15.06385215","REV_AT_EPOCH":"360"},{"OBJECT_TYPE":"PAYLOAD","OBJECT_NAME":"STARLINK-2187","NORAD_CAT_ID":"48562","EPHEMERIS_TYPE":"0","INCLINATION":"53.0557","MEAN_MOTION_DOT":"0.00000014","APOAPSIS":"548.199","ECCENTRICITY":"0.00014000","GP_ID":"193735795","RA_OF_ASC_NODE":"102.4321","COUNTRY_CODE":"US","ELEMENT_SET_NO":"999","RCS_SIZE":"LARGE","CLASSIFICATION_TYPE":"U","DECAY_DATE":null,"TLE_LINE1":"1 48562U 21041K   22012.52763580  .00000014  00000-0  19845-4 0  9992","CENTER_NAME":"EARTH","ARG_OF_PERICENTER":"119.0010","SEMIMAJOR_AXIS":"6925.365","TIME_SYSTEM":"UTC","TLE_LINE2":"2 48562  53.0557 102.4321 0001400 119.0010 241.1119 15.06394674 36533","MEAN_ELEMENT_THEORY":"SGP4","BSTAR":"0.00001984500000","SITE":"AFETR","LAUNCH_DATE":"2021-05-15","MEAN_ANOMALY":"241.1119","MEAN_MOTION_DDOT":"0.0000000000000","EPOCH":"2022-01-12T12:39:47.733120","PERIAPSIS":"546.260","FILE":"3270709","OBJECT_ID":"2021-041K","REF_FRAME":"TEME","PERIOD":"95.592","MEAN_MOTION":"15.06394674","REV_AT_EPOCH":"3653"}];
